[{"OBJECT_NAME":"METEOSAT-11 (MSG-4)","OBJECT_ID":"2015-034A","EPOCH":"2026-03-02T21:00:20.316096","MEAN_MOTION":1.00265616,"ECCENTRICITY":0.00018018,"INCLINATION":2.9336,"RA_OF_ASC_NODE":71.691,"ARG_OF_PERICENTER":270.7176,"MEAN_ANOMALY":142.7489,"EPHEMERIS_TYPE":0,"CLASSIFICATION_TYPE":"U","NORAD_CAT_ID":40732,"ELEMENT_SET_NO":999,"REV_AT_EPOCH":615,"BSTAR":0,"MEAN_MOTION_DOT":4.7e-7,"MEAN_MOTION_DDOT":0},{"OBJECT_NAME":"ELEKTRO-L 2","OBJECT_ID":"2015-074A","EPOCH":"2026-03-02T21:17:52.046880","MEAN_MOTION":1.00270708,"ECCENTRICITY":0.00034957,"INCLINATION":6.4268,"RA_OF_ASC_NODE":71.8299,"ARG_OF_PERICENTER":235.4549,"MEAN_ANOMALY":158.334,"EPHEMERIS_TYPE":0,"CLASSIFICATION_TYPE":"U","NORAD_CAT_ID":41105,"ELEMENT_SET_NO":999,"REV_AT_EPOCH":3744,"BSTAR":0,"MEAN_MOTION_DOT":-1.31e-6,"MEAN_MOTION_DDOT":0},{"OBJECT_NAME":"INSAT-3DR","OBJECT_ID":"2016-054A","EPOCH":"2026-03-02T20:57:21.443040","MEAN_MOTION":1.00272242,"ECCENTRICITY":0.0013372,"INCLINATION":0.0429,"RA_OF_ASC_NODE":97.4429,"ARG_OF_PERICENTER":184.1455,"MEAN_ANOMALY":267.3678,"EPHEMERIS_TYPE":0,"CLASSIFICATION_TYPE":"U","NORAD_CAT_ID":41752,"ELEMENT_SET_NO":999,"REV_AT_EPOCH":3475,"BSTAR":0,"MEAN_MOTION_DOT":-9.3e-7,"MEAN_MOTION_DDOT":0},{"OBJECT_NAME":"HIMAWARI-9","OBJECT_ID":"2016-064A","EPOCH":"2026-03-02T20:00:38.439072","MEAN_MOTION":1.00272669,"ECCENTRICITY":0.00011273,"INCLINATION":0.017,"RA_OF_ASC_NODE":189.165,"ARG_OF_PERICENTER":171.7739,"MEAN_ANOMALY":240.5949,"EPHEMERIS_TYPE":0,"CLASSIFICATION_TYPE":"U","NORAD_CAT_ID":41836,"ELEMENT_SET_NO":999,"REV_AT_EPOCH":3414,"BSTAR":0,"MEAN_MOTION_DOT":-2.91e-6,"MEAN_MOTION_DDOT":0},{"OBJECT_NAME":"GOES 16","OBJECT_ID":"2016-071A","EPOCH":"2026-03-02T15:19:46.525152","MEAN_MOTION":1.00271558,"ECCENTRICITY":0.00026017,"INCLINATION":0.1427,"RA_OF_ASC_NODE":90.2616,"ARG_OF_PERICENTER":216.051,"MEAN_ANOMALY":339.3388,"EPHEMERIS_TYPE":0,"CLASSIFICATION_TYPE":"U","NORAD_CAT_ID":41866,"ELEMENT_SET_NO":999,"REV_AT_EPOCH":3403,"BSTAR":0,"MEAN_MOTION_DOT":-1.08e-6,"MEAN_MOTION_DDOT":0},{"OBJECT_NAME":"FENGYUN 4A","OBJECT_ID":"2016-077A","EPOCH":"2026-03-02T07:51:26.140896","MEAN_MOTION":1.0026253,"ECCENTRICITY":0.00063908,"INCLINATION":2.0502,"RA_OF_ASC_NODE":81.4469,"ARG_OF_PERICENTER":133.8252,"MEAN_ANOMALY":186.1956,"EPHEMERIS_TYPE":0,"CLASSIFICATION_TYPE":"U","NORAD_CAT_ID":41882,"ELEMENT_SET_NO":999,"REV_AT_EPOCH":3385,"BSTAR":0,"MEAN_MOTION_DOT":-3.74e-6,"MEAN_MOTION_DDOT":0},{"OBJECT_NAME":"CYGFM05","OBJECT_ID":"2016-078A","EPOCH":"2026-03-02T21:09:57.089664","MEAN_MOTION":15.51768101,"ECCENTRICITY":0.0006933,"INCLINATION":34.9565,"RA_OF_ASC_NODE":242.0476,"ARG_OF_PERICENTER":227.0708,"MEAN_ANOMALY":132.9434,"EPHEMERIS_TYPE":0,"CLASSIFICATION_TYPE":"U","NORAD_CAT_ID":41884,"ELEMENT_SET_NO":999,"REV_AT_EPOCH":51220,"BSTAR":0.00045142943,"MEAN_MOTION_DOT":0.00027874,"MEAN_MOTION_DDOT":0},{"OBJECT_NAME":"CYGFM04","OBJECT_ID":"2016-078B","EPOCH":"2026-03-02T18:05:00.596832","MEAN_MOTION":15.55134948,"ECCENTRICITY":0.0006069,"INCLINATION":34.9318,"RA_OF_ASC_NODE":215.2099,"ARG_OF_PERICENTER":259.5153,"MEAN_ANOMALY":100.4887,"EPHEMERIS_TYPE":0,"CLASSIFICATION_TYPE":"U","NORAD_CAT_ID":41885,"ELEMENT_SET_NO":999,"REV_AT_EPOCH":51238,"BSTAR":0.0004839244,"MEAN_MOTION_DOT":0.00033809,"MEAN_MOTION_DDOT":0},{"OBJECT_NAME":"CYGFM02","OBJECT_ID":"2016-078C","EPOCH":"2026-03-02T20:33:57.107808","MEAN_MOTION":15.57149529,"ECCENTRICITY":0.00070545,"INCLINATION":34.9405,"RA_OF_ASC_NODE":211.5722,"ARG_OF_PERICENTER":260.5678,"MEAN_ANOMALY":99.4249,"EPHEMERIS_TYPE":0,"CLASSIFICATION_TYPE":"U","NORAD_CAT_ID":41886,"ELEMENT_SET_NO":999,"REV_AT_EPOCH":51254,"BSTAR":0.0006056362,"MEAN_MOTION_DOT":0.00045702,"MEAN_MOTION_DDOT":0},{"OBJECT_NAME":"CYGFM01","OBJECT_ID":"2016-078D","EPOCH":"2026-03-02T21:51:52.305984","MEAN_MOTION":15.52200156,"ECCENTRICITY":0.00064983,"INCLINATION":34.9394,"RA_OF_ASC_NODE":243.6807,"ARG_OF_PERICENTER":218.7493,"MEAN_ANOMALY":141.2764,"EPHEMERIS_TYPE":0,"CLASSIFICATION_TYPE":"U","NORAD_CAT_ID":41887,"ELEMENT_SET_NO":999,"REV_AT_EPOCH":51215,"BSTAR":0.00045805901,"MEAN_MOTION_DOT":0.00028729,"MEAN_MOTION_DDOT":0},{"OBJECT_NAME":"CYGFM08","OBJECT_ID":"2016-078E","EPOCH":"2026-03-02T20:00:00.216576","MEAN_MOTION":15.5367104,"ECCENTRICITY":0.00081253,"INCLINATION":34.9427,"RA_OF_ASC_NODE":226.1438,"ARG_OF_PERICENTER":243.3728,"MEAN_ANOMALY":116.6163,"EPHEMERIS_TYPE":0,"CLASSIFICATION_TYPE":"U","NORAD_CAT_ID":41888,"ELEMENT_SET_NO":999,"REV_AT_EPOCH":51238,"BSTAR":0.00047772127,"MEAN_MOTION_DOT":0.00031637,"MEAN_MOTION_DDOT":0},{"OBJECT_NAME":"CYGFM07","OBJECT_ID":"2016-078G","EPOCH":"2026-03-02T19:16:14.956896","MEAN_MOTION":15.54357251,"ECCENTRICITY":0.00066827,"INCLINATION":34.9445,"RA_OF_ASC_NODE":214.8351,"ARG_OF_PERICENTER":263.2097,"MEAN_ANOMALY":96.7866,"EPHEMERIS_TYPE":0,"CLASSIFICATION_TYPE":"U","NORAD_CAT_ID":41890,"ELEMENT_SET_NO":999,"REV_AT_EPOCH":51240,"BSTAR":0.0004856975,"MEAN_MOTION_DOT":0.00032976,"MEAN_MOTION_DDOT":0},{"OBJECT_NAME":"CYGFM03","OBJECT_ID":"2016-078H","EPOCH":"2026-03-02T18:34:40.150848","MEAN_MOTION":15.54370065,"ECCENTRICITY":0.00057723,"INCLINATION":34.9401,"RA_OF_ASC_NODE":217.0068,"ARG_OF_PERICENTER":249.3234,"MEAN_ANOMALY":110.6871,"EPHEMERIS_TYPE":0,"CLASSIFICATION_TYPE":"U","NORAD_CAT_ID":41891,"ELEMENT_SET_NO":999,"REV_AT_EPOCH":51237,"BSTAR":0.00034713839,"MEAN_MOTION_DOT":0.00023532,"MEAN_MOTION_DDOT":0},{"OBJECT_NAME":"FENGYUN 3D","OBJECT_ID":"2017-072A","EPOCH":"2026-03-02T22:34:56.052192","MEAN_MOTION":14.19711836,"ECCENTRICITY":0.00018816,"INCLINATION":99.0011,"RA_OF_ASC_NODE":34.5059,"ARG_OF_PERICENTER":26.8688,"MEAN_ANOMALY":333.2585,"EPHEMERIS_TYPE":0,"CLASSIFICATION_TYPE":"U","NORAD_CAT_ID":43010,"ELEMENT_SET_NO":999,"REV_AT_EPOCH":42991,"BSTAR":-7.0248437e-5,"MEAN_MOTION_DOT":-1.95e-6,"MEAN_MOTION_DDOT":0},{"OBJECT_NAME":"NOAA 20 (JPSS-1)","OBJECT_ID":"2017-073A","EPOCH":"2026-03-02T22:06:00.740160","MEAN_MOTION":14.19533954,"ECCENTRICITY":8.977e-5,"INCLINATION":98.7685,"RA_OF_ASC_NODE":2.3756,"ARG_OF_PERICENTER":146.0304,"MEAN_ANOMALY":214.0929,"EPHEMERIS_TYPE":0,"CLASSIFICATION_TYPE":"U","NORAD_CAT_ID":43013,"ELEMENT_SET_NO":999,"REV_AT_EPOCH":42939,"BSTAR":6.4075244e-5,"MEAN_MOTION_DOT":9.1e-7,"MEAN_MOTION_DDOT":0},{"OBJECT_NAME":"GOES 17","OBJECT_ID":"2018-022A","EPOCH":"2026-03-02T20:32:08.020896","MEAN_MOTION":1.00270461,"ECCENTRICITY":0.00023319,"INCLINATION":0.6641,"RA_OF_ASC_NODE":87.5864,"ARG_OF_PERICENTER":219.2912,"MEAN_ANOMALY":72.2783,"EPHEMERIS_TYPE":0,"CLASSIFICATION_TYPE":"U","NORAD_CAT_ID":43226,"ELEMENT_SET_NO":999,"REV_AT_EPOCH":2935,"BSTAR":0,"MEAN_MOTION_DOT":-1.98e-6,"MEAN_MOTION_DDOT":0},{"OBJECT_NAME":"FENGYUN 2H","OBJECT_ID":"2018-050A","EPOCH":"2026-03-02T21:29:11.288256","MEAN_MOTION":1.00272604,"ECCENTRICITY":0.0002016,"INCLINATION":2.7565,"RA_OF_ASC_NODE":80.3709,"ARG_OF_PERICENTER":173.4098,"MEAN_ANOMALY":308.2405,"EPHEMERIS_TYPE":0,"CLASSIFICATION_TYPE":"U","NORAD_CAT_ID":43491,"ELEMENT_SET_NO":999,"REV_AT_EPOCH":2837,"BSTAR":0,"MEAN_MOTION_DOT":-1.42e-6,"MEAN_MOTION_DDOT":0}]
